{"type": "FeatureCollection", "features": [{"type": "Feature", "properties": {"norad_id": 36828, "name": "BEIDOU-2 IGSO-1 (C06)", "group": "beidou", "lat": 50.70945677497111, "lon": -133.55938387684034, "alt_km": 35951.73471044629, "timestamp": "2025-12-01T03:58:49.201463+00:00", "meta": {"OBJECT_NAME": "BEIDOU-2 IGSO-1 (C06)", "OBJECT_ID": "2010-036A", "EPOCH": "2025-11-30T10:56:14.803296", "MEAN_MOTION": 1.00279528, "ECCENTRICITY": 0.00512749, "INCLINATION": 54.2835, "RA_OF_ASC_NODE": 164.7602, "ARG_OF_PERICENTER": 215.7273, "MEAN_ANOMALY": 320.8565, "EPHEMERIS_TYPE": 0, "CLASSIFICATION_TYPE": "U", "NORAD_CAT_ID": 36828, "ELEMENT_SET_NO": 999, "REV_AT_EPOCH": 5610, "BSTAR": 0, "MEAN_MOTION_DOT": -2.1e-07, "MEAN_MOTION_DDOT": 0, "GROUP": "beidou"}, "tle": {"line1": "1 36828U 10036A   25334.45572689 -.00000021  00000+0  00000+0 0  9992", "line2": "2 36828  54.2835 164.7602 0051274 215.7273 320.8565  1.00279528 56103"}}, "geometry": {"type": "Point", "coordinates": [-133.55938387684034, 50.70945677497111]}}, {"type": "Feature", "properties": {"norad_id": 37210, "name": "BEIDOU-2 G4 (C04)", "group": "beidou", "lat": -2.040924416674321, "lon": -69.93543689861137, "alt_km": 35748.12190932579, "timestamp": "2025-12-01T03:58:49.201490+00:00", "meta": {"OBJECT_NAME": "BEIDOU-2 G4 (C04)", "OBJECT_ID": "2010-057A", "EPOCH": "2025-11-30T19:44:29.116608", "MEAN_MOTION": 1.00271583, "ECCENTRICITY": 0.0010748, "INCLINATION": 3.1524, "RA_OF_ASC_NODE": 69.9666, "ARG_OF_PERICENTER": 187.5096, "MEAN_ANOMALY": 268.6675, "EPHEMERIS_TYPE": 0, "CLASSIFICATION_TYPE": "U", "NORAD_CAT_ID": 37210, "ELEMENT_SET_NO": 999, "REV_AT_EPOCH": 5530, "BSTAR": 0, "MEAN_MOTION_DOT": -9e-07, "MEAN_MOTION_DDOT": 0, "GROUP": "beidou"}, "tle": {"line1": "1 37210U 10057A   25334.82255922 -.00000090  00000+0  00000+0 0  9996", "line2": "2 37210   3.1524  69.9666 0010748 187.5096 268.6675  1.00271583 55308"}}, "geometry": {"type": "Point", "coordinates": [-69.93543689861137, -2.040924416674321]}}, {"type": "Feature", "properties": {"norad_id": 37256, "name": "BEIDOU-2 IGSO-2 (C07)", "group": "beidou", "lat": -26.329926426337984, "lon": -112.26951028650495, "alt_km": 35844.55741365855, "timestamp": "2025-12-01T03:58:49.201507+00:00", "meta": {"OBJECT_NAME": "BEIDOU-2 IGSO-2 (C07)", "OBJECT_ID": "2010-068A", "EPOCH": "2025-11-30T14:15:56.539296", "MEAN_MOTION": 1.00290004, "ECCENTRICITY": 0.0049401, "INCLINATION": 47.9109, "RA_OF_ASC_NODE": 274.301, "ARG_OF_PERICENTER": 216.3834, "MEAN_ANOMALY": 260.0417, "EPHEMERIS_TYPE": 0, "CLASSIFICATION_TYPE": "U", "NORAD_CAT_ID": 37256, "ELEMENT_SET_NO": 999, "REV_AT_EPOCH": 5480, "BSTAR": 0, "MEAN_MOTION_DOT": -2.25e-06, "MEAN_MOTION_DDOT": 0, "GROUP": "beidou"}, "tle": {"line1": "1 37256U 10068A   25334.59440439 -.00000225  00000+0  00000+0 0  9991", "line2": "2 37256  47.9109 274.3010 0049401 216.3834 260.0417  1.00290004 54800"}}, "geometry": {"type": "Point", "coordinates": [-112.26951028650495, -26.329926426337984]}}, {"type": "Feature", "properties": {"norad_id": 37384, "name": "BEIDOU-2 IGSO-3 (C08)", "group": "beidou", "lat": -13.884982283706586, "lon": -130.44469695177253, "alt_km": 35639.64009046275, "timestamp": "2025-12-01T03:58:49.201520+00:00", "meta": {"OBJECT_NAME": "BEIDOU-2 IGSO-3 (C08)", "OBJECT_ID": "2011-013A", "EPOCH": "2025-11-29T21:04:05.094336", "MEAN_MOTION": 1.00273417, "ECCENTRICITY": 0.00356655, "INCLINATION": 62.1255, "RA_OF_ASC_NODE": 42.0418, "ARG_OF_PERICENTER": 186.0158, "MEAN_ANOMALY": 264.7363, "EPHEMERIS_TYPE": 0, "CLASSIFICATION_TYPE": "U", "NORAD_CAT_ID": 37384, "ELEMENT_SET_NO": 999, "REV_AT_EPOCH": 5366, "BSTAR": 0, "MEAN_MOTION_DOT": -1.94e-06, "MEAN_MOTION_DDOT": 0, "GROUP": "beidou"}, "tle": {"line1": "1 37384U 11013A   25333.87783674 -.00000194  00000+0  00000+0 0  9990", "line2": "2 37384  62.1255  42.0418 0035665 186.0158 264.7363  1.00273417 53667"}}, "geometry": {"type": "Point", "coordinates": [-130.44469695177253, -13.884982283706586]}}, {"type": "Feature", "properties": {"norad_id": 37763, "name": "BEIDOU-2 IGSO-4 (C09)", "group": "beidou", "lat": 42.63759844345883, "lon": -151.55274498233595, "alt_km": 36402.46102236156, "timestamp": "2025-12-01T03:58:49.201536+00:00", "meta": {"OBJECT_NAME": "BEIDOU-2 IGSO-4 (C09)", "OBJECT_ID": "2011-038A", "EPOCH": "2025-11-28T12:37:32.473920", "MEAN_MOTION": 1.00284857, "ECCENTRICITY": 0.01486323, "INCLINATION": 54.5801, "RA_OF_ASC_NODE": 167.4746, "ARG_OF_PERICENTER": 230.1967, "MEAN_ANOMALY": 313.2933, "EPHEMERIS_TYPE": 0, "CLASSIFICATION_TYPE": "U", "NORAD_CAT_ID": 37763, "ELEMENT_SET_NO": 999, "REV_AT_EPOCH": 5263, "BSTAR": 0, "MEAN_MOTION_DOT": 8.5e-07, "MEAN_MOTION_DDOT": 0, "GROUP": "beidou"}, "tle": {"line1": "1 37763U 11038A   25332.52607030  .00000085  00000+0  00000+0 0  9998", "line2": "2 37763  54.5801 167.4746 0148632 230.1967 313.2933  1.00284857 52633"}}, "geometry": {"type": "Point", "coordinates": [-151.55274498233595, 42.63759844345883]}}, {"type": "Feature", "properties": {"norad_id": 37948, "name": "BEIDOU-2 IGSO-5 (C10)", "group": "beidou", "lat": -35.01739283912942, "lon": -125.03377784255828, "alt_km": 35757.589101885926, "timestamp": "2025-12-01T03:58:49.201552+00:00", "meta": {"OBJECT_NAME": "BEIDOU-2 IGSO-5 (C10)", "OBJECT_ID": "2011-073A", "EPOCH": "2025-11-30T19:25:00.979968", "MEAN_MOTION": 1.00293171, "ECCENTRICITY": 0.0110907, "INCLINATION": 48.0444, "RA_OF_ASC_NODE": 274.0065, "ARG_OF_PERICENTER": 222.268, "MEAN_ANOMALY": 317.1379, "EPHEMERIS_TYPE": 0, "CLASSIFICATION_TYPE": "U", "NORAD_CAT_ID": 37948, "ELEMENT_SET_NO": 999, "REV_AT_EPOCH": 5114, "BSTAR": 0, "MEAN_MOTION_DOT": -1.72e-06, "MEAN_MOTION_DDOT": 0, "GROUP": "beidou"}, "tle": {"line1": "1 37948U 11073A   25334.80903912 -.00000172  00000+0  00000+0 0  9991", "line2": "2 37948  48.0444 274.0065 0110907 222.2680 317.1379  1.00293171 51147"}}, "geometry": {"type": "Point", "coordinates": [-125.03377784255828, -35.01739283912942]}}, {"type": "Feature", "properties": {"norad_id": 38091, "name": "BEIDOU-2 G5 (C05)", "group": "beidou", "lat": 2.7045578491461035, "lon": -171.43178184368813, "alt_km": 35800.78435148015, "timestamp": "2025-12-01T03:58:49.201567+00:00", "meta": {"OBJECT_NAME": "BEIDOU-2 G5 (C05)", "OBJECT_ID": "2012-008A", "EPOCH": "2025-11-30T20:58:14.552256", "MEAN_MOTION": 1.00271693, "ECCENTRICITY": 0.00121, "INCLINATION": 3.077, "RA_OF_ASC_NODE": 70.7417, "ARG_OF_PERICENTER": 225.2694, "MEAN_ANOMALY": 147.2486, "EPHEMERIS_TYPE": 0, "CLASSIFICATION_TYPE": "U", "NORAD_CAT_ID": 38091, "ELEMENT_SET_NO": 999, "REV_AT_EPOCH": 5038, "BSTAR": 0, "MEAN_MOTION_DOT": 7.9e-07, "MEAN_MOTION_DDOT": 0, "GROUP": "beidou"}, "tle": {"line1": "1 38091U 12008A   25334.87377954  .00000079  00000+0  00000+0 0  9993", "line2": "2 38091   3.0770  70.7417 0012100 225.2694 147.2486  1.00271693 50387"}}, "geometry": {"type": "Point", "coordinates": [-171.43178184368813, 2.7045578491461035]}}, {"type": "Feature", "properties": {"norad_id": 38250, "name": "BEIDOU-2 M3 (C11)", "group": "beidou", "lat": 53.725186878092764, "lon": 18.74158275743199, "alt_km": 21587.702985864948, "timestamp": "2025-12-01T03:58:49.201579+00:00", "meta": {"OBJECT_NAME": "BEIDOU-2 M3 (C11)", "OBJECT_ID": "2012-018A", "EPOCH": "2025-11-30T12:20:22.153056", "MEAN_MOTION": 1.86229735, "ECCENTRICITY": 0.002455, "INCLINATION": 55.9307, "RA_OF_ASC_NODE": 311.5688, "ARG_OF_PERICENTER": 273.3237, "MEAN_ANOMALY": 86.3938, "EPHEMERIS_TYPE": 0, "CLASSIFICATION_TYPE": "U", "NORAD_CAT_ID": 38250, "ELEMENT_SET_NO": 999, "REV_AT_EPOCH": 9224, "BSTAR": 0, "MEAN_MOTION_DOT": -5e-07, "MEAN_MOTION_DDOT": 0, "GROUP": "beidou"}, "tle": {"line1": "1 38250U 12018A   25334.51414529 -.00000050  00000+0  00000+0 0  9992", "line2": "2 38250  55.9307 311.5688 0024550 273.3237  86.3938  1.86229735 92241"}}, "geometry": {"type": "Point", "coordinates": [18.74158275743199, 53.725186878092764]}}, {"type": "Feature", "properties": {"norad_id": 38251, "name": "BEIDOU-2 M4 (C12)", "group": "beidou", "lat": 44.38240550179332, "lon": 89.10994755235966, "alt_km": 21562.305061770643, "timestamp": "2025-12-01T03:58:49.201590+00:00", "meta": {"OBJECT_NAME": "BEIDOU-2 M4 (C12)", "OBJECT_ID": "2012-018B", "EPOCH": "2025-11-30T10:42:30.206880", "MEAN_MOTION": 1.86229429, "ECCENTRICITY": 0.0015683, "INCLINATION": 55.8321, "RA_OF_ASC_NODE": 310.801, "ARG_OF_PERICENTER": 276.2747, "MEAN_ANOMALY": 83.5448, "EPHEMERIS_TYPE": 0, "CLASSIFICATION_TYPE": "U", "NORAD_CAT_ID": 38251, "ELEMENT_SET_NO": 999, "REV_AT_EPOCH": 9224, "BSTAR": 0, "MEAN_MOTION_DOT": -5e-07, "MEAN_MOTION_DDOT": 0, "GROUP": "beidou"}, "tle": {"line1": "1 38251U 12018B   25334.44618295 -.00000050  00000+0  00000+0 0  9991", "line2": "2 38251  55.8321 310.8010 0015683 276.2747  83.5448  1.86229429 92248"}}, "geometry": {"type": "Point", "coordinates": [89.10994755235966, 44.38240550179332]}}, {"type": "Feature", "properties": {"norad_id": 38775, "name": "BEIDOU-2 M6 (C14)", "group": "beidou", "lat": -35.20171795491116, "lon": 41.48330895187278, "alt_km": 21506.44109866742, "timestamp": "2025-12-01T03:58:49.201605+00:00", "meta": {"OBJECT_NAME": "BEIDOU-2 M6 (C14)", "OBJECT_ID": "2012-050B", "EPOCH": "2025-11-30T03:46:17.715072", "MEAN_MOTION": 1.86230748, "ECCENTRICITY": 0.00108176, "INCLINATION": 56.3677, "RA_OF_ASC_NODE": 69.4852, "ARG_OF_PERICENTER": 346.8684, "MEAN_ANOMALY": 13.1099, "EPHEMERIS_TYPE": 0, "CLASSIFICATION_TYPE": "U", "NORAD_CAT_ID": 38775, "ELEMENT_SET_NO": 999, "REV_AT_EPOCH": 8960, "BSTAR": 0, "MEAN_MOTION_DOT": -3.1e-07, "MEAN_MOTION_DDOT": 0, "GROUP": "beidou"}, "tle": {"line1": "1 38775U 12050B   25334.15714948 -.00000031  00000+0  00000+0 0  9997", "line2": "2 38775  56.3677  69.4852 0010817 346.8684  13.1099  1.86230748 89601"}}, "geometry": {"type": "Point", "coordinates": [41.48330895187278, -35.20171795491116]}}]}